{
    "CCSDS_OMM_VERS": "3.0",
    "COMMENT": "GENERATED VIA SPACE-TRACK.ORG API",
    "CREATION_DATE": "2025-11-24T07:26:19",
    "ORIGINATOR": "18 SPCS",
    "OBJECT_NAME": "NAVSTAR 66 (USA 232)",
    "OBJECT_ID": "2011-036A",
    "CENTER_NAME": "EARTH",
    "REF_FRAME": "TEME",
    "TIME_SYSTEM": "UTC",
    "MEAN_ELEMENT_THEORY": "SGP4",
    "EPOCH": "2025-11-23T23:19:24.242304",
    "MEAN_MOTION": "2.00564524",
    "ECCENTRICITY": "0.01351180",
    "INCLINATION": "56.6540",
    "RA_OF_ASC_NODE": "340.0030",
    "ARG_OF_PERICENTER": "60.5590",
    "MEAN_ANOMALY": "316.8779",
    "EPHEMERIS_TYPE": "0",
    "CLASSIFICATION_TYPE": "U",
    "NORAD_CAT_ID": "37753",
    "ELEMENT_SET_NO": "999",
    "REV_AT_EPOCH": "10516",
    "BSTAR": "0.00000000000000",
    "MEAN_MOTION_DOT": "-0.00000063",
    "MEAN_MOTION_DDOT": "0.0000000000000",
    "SEMIMAJOR_AXIS": "26560.267",
    "PERIOD": "717.973",
    "APOAPSIS": "20541.009",
    "PERIAPSIS": "19823.255",
    "OBJECT_TYPE": "PAYLOAD",
    "RCS_SIZE": "LARGE",
    "COUNTRY_CODE": "US",
    "LAUNCH_DATE": "2011-07-16",
    "SITE": "AFETR",
    "DECAY_DATE": null,
    "FILE": "4896930",
    "GP_ID": "303365928",
    "TLE_LINE0": "0 NAVSTAR 66 (USA 232)",
    "TLE_LINE1": "1 37753U 11036A   25327.97180836 -.00000063  00000-0  00000+0 0  9996",
    "TLE_LINE2": "2 37753  56.6540 340.0030 0135118  60.5590 316.8779  2.00564524105169"
}